ONEWEB-0388             
1 49314U 21090AM  25078.43128174 -.00000001  00000+0 -35275-4 0  9993
2 49314  87.9224  35.3623 0001938  85.7875 274.3479 13.19725640166432
ONEWEB-0389             
1 50469U 21132A   25078.56886423  .00000073  00000+0  15355-3 0  9998
2 50469  87.9005  96.4284 0001723 105.0737 255.0585 13.17647850158213
ONEWEB-0390             
1 50470U 21132B   25078.57057310  .00000089  00000+0  19513-3 0  9993
2 50470  87.9006  96.4350 0001630  87.0578 273.0740 13.17649270158210
ONEWEB-0391             
1 50471U 21132C   25078.57225152  .00000095  00000+0  21131-3 0  9991
2 50471  87.9014  96.4406 0001396 121.5538 238.5730 13.17650933158214
ONEWEB-0392             
1 50472U 21132D   25078.52669203  .00000013  00000+0  37583-6 0  9997
2 50472  87.8999  96.4103 0001732 105.8676 254.2647 13.17650391158245
ONEWEB-0393             
1 50473U 21132E   25078.57576754  .00000013  00000+0  10873-5 0  9993
2 50473  87.9012  96.4046 0001781  97.7175 262.4159 13.17649698158243
ONEWEB-0394             
1 50474U 21132F   25078.52176235  .00000072  00000+0  14994-3 0  9990
2 50474  87.9064  65.8347 0001869  90.6566 269.4780 13.18687411162943
